{"type": "FeatureCollection", "features": [ {"type": "Feature", "properties": {"norad_id": 29750, "name": "FENGYUN 1C DEB", "group": "fengyun-1c-debris", "lat": 19.94646680988935, "lon": -168.48002111479573, "alt_km": 885.2406255117075, "timestamp": "2025-12-04T23:34:05.993611+00:00", "meta": {"OBJECT_NAME": "FENGYUN 1C DEB", "OBJECT_ID": "1999-025AQ", "EPOCH": "2025-12-03T20:23:08.763072", "MEAN_MOTION": 14.0963189, "ECCENTRICITY": 0.00353364, "INCLINATION": 98.7556, "RA_OF_ASC_NODE": 7.2124, "ARG_OF_PERICENTER": 327.1974, "MEAN_ANOMALY": 208.2024, "EPHEMERIS_TYPE": 0, "CLASSIFICATION_TYPE": "U", "NORAD_CAT_ID": 29750, "ELEMENT_SET_NO": 999, "REV_AT_EPOCH": 96948, "BSTAR": 0.00044577223, "MEAN_MOTION_DOT": 7.42e-06, "MEAN_MOTION_DDOT": 0}, "tle": {"line1": "1 29750U 99025AQ  25337.84940698  .00000742  00000+0  44577-3 0  9998", "line2": "2 29750  98.7556   7.2124 0035336 327.1974 208.2024 14.09631890969489"}}, "geometry": {"type": "Point", "coordinates": [-168.48002111479573, 19.94646680988935]}}, {"type": "Feature", "properties": {"norad_id": 29751, "name": "FENGYUN 1C DEB", "group": "fengyun-1c-debris", "lat": -81.10126503911629, "lon": 113.34935779612118, "alt_km": 837.5414240998498, "timestamp": "2025-12-04T23:34:05.993622+00:00", "meta": {"OBJECT_NAME": "FENGYUN 1C DEB", "OBJECT_ID": "1999-025AR", "EPOCH": "2025-12-04T14:29:11.750208", "MEAN_MOTION": 14.2361959, "ECCENTRICITY": 0.0089563, "INCLINATION": 98.5423, "RA_OF_ASC_NODE": 6.7107, "ARG_OF_PERICENTER": 162.7514, "MEAN_ANOMALY": 325.5312, "EPHEMERIS_TYPE": 0, "CLASSIFICATION_TYPE": "U", "NORAD_CAT_ID": 29751, "ELEMENT_SET_NO": 999, "REV_AT_EPOCH": 97957, "BSTAR": 0.00029729, "MEAN_MOTION_DOT": 6.64e-06, "MEAN_MOTION_DDOT": 0}, "tle": {"line1": "1 29751U 99025AR  25338.60360822  .00000664  00000+0  29729-3 0  9994", "line2": "2 29751  98.5423   6.7107 0089563 162.7514 325.5312 14.23619590979573"}}, "geometry": {"type": "Point", "coordinates": [113.34935779612118, -81.10126503911629]}}, {"type": "Feature", "properties": {"norad_id": 29754, "name": "FENGYUN 1C DEB", "group": "fengyun-1c-debris", "lat": 14.35946462000251, "lon": -96.00243763116463, "alt_km": 832.01942342648, "timestamp": "2025-12-04T23:34:05.993633+00:00", "meta": {"OBJECT_NAME": "FENGYUN 1C DEB", "OBJECT_ID": "1999-025AU", "EPOCH": "2025-12-04T12:56:15.179712", "MEAN_MOTION": 14.19098051, "ECCENTRICITY": 0.0035576, "INCLINATION": 98.8852, "RA_OF_ASC_NODE": 81.2585, "ARG_OF_PERICENTER": 263.0047, "MEAN_ANOMALY": 161.098, "EPHEMERIS_TYPE": 0, "CLASSIFICATION_TYPE": "U", "NORAD_CAT_ID": 29754, "ELEMENT_SET_NO": 999, "REV_AT_EPOCH": 97238, "BSTAR": 0.0019855, "MEAN_MOTION_DOT": 4.134e-05, "MEAN_MOTION_DDOT": 0}, "tle": {"line1": "1 29754U 99025AU  25338.53906458  .00004134  00000+0  19855-2 0  9994", "line2": "2 29754  98.8852  81.2585 0035576 263.0047 161.0980 14.19098051972388"}}, "geometry": {"type": "Point", "coordinates": [-96.00243763116463, 14.35946462000251]}}, {"type": "Feature", "properties": {"norad_id": 29758, "name": "FENGYUN 1C DEB", "group": "fengyun-1c-debris", "lat": -57.540262453165916, "lon": -99.76747078481962, "alt_km": 763.6913400109324, "timestamp": "2025-12-04T23:34:05.993647+00:00", "meta": {"OBJECT_NAME": "FENGYUN 1C DEB", "OBJECT_ID": "1999-025AY", "EPOCH": "2025-12-04T14:12:10.243008", "MEAN_MOTION": 14.40781054, "ECCENTRICITY": 0.002039, "INCLINATION": 98.8563, "RA_OF_ASC_NODE": 94.0175, "ARG_OF_PERICENTER": 332.8762, "MEAN_ANOMALY": 43.0396, "EPHEMERIS_TYPE": 0, "CLASSIFICATION_TYPE": "U", "NORAD_CAT_ID": 29758, "ELEMENT_SET_NO": 999, "REV_AT_EPOCH": 97554, "BSTAR": 0.0063615, "MEAN_MOTION_DOT": 0.0002042, "MEAN_MOTION_DDOT": 0}, "tle": {"line1": "1 29758U 99025AY  25338.59178522  .00020420  00000+0  63615-2 0  9996", "line2": "2 29758  98.8563  94.0175 0020390 332.8762  43.0396 14.40781054975542"}}, "geometry": {"type": "Point", "coordinates": [-99.76747078481962, -57.540262453165916]}}, {"type": "Feature", "properties": {"norad_id": 29760, "name": "FENGYUN 1C DEB", "group": "fengyun-1c-debris", "lat": 29.341070679550864, "lon": 166.34461933337337, "alt_km": 796.6634633089916, "timestamp": "2025-12-04T23:34:05.993662+00:00", "meta": {"OBJECT_NAME": "FENGYUN 1C DEB", "OBJECT_ID": "1999-025BA", "EPOCH": "2025-12-04T12:37:10.473024", "MEAN_MOTION": 14.08280458, "ECCENTRICITY": 0.013043, "INCLINATION": 98.7622, "RA_OF_ASC_NODE": 340.928, "ARG_OF_PERICENTER": 196.753, "MEAN_ANOMALY": 162.9312, "EPHEMERIS_TYPE": 0, "CLASSIFICATION_TYPE": "U", "NORAD_CAT_ID": 29760, "ELEMENT_SET_NO": 999, "REV_AT_EPOCH": 96977, "BSTAR": 0.00032923, "MEAN_MOTION_DOT": 5.66e-06, "MEAN_MOTION_DDOT": 0}, "tle": {"line1": "1 29760U 99025BA  25338.52581566  .00000566  00000+0  32923-3 0  9996", "line2": "2 29760  98.7622 340.9280 0130430 196.7530 162.9312 14.08280458969770"}}, "geometry": {"type": "Point", "coordinates": [166.34461933337337, 29.341070679550864]}}, {"type": "Feature", "properties": {"norad_id": 29762, "name": "FENGYUN 1C DEB", "group": "fengyun-1c-debris", "lat": 77.81308185909901, "lon": -82.3694759533453, "alt_km": 788.8249098741644, "timestamp": "2025-12-04T23:34:05.993673+00:00", "meta": {"OBJECT_NAME": "FENGYUN 1C DEB", "OBJECT_ID": "1999-025BC", "EPOCH": "2025-12-04T10:24:58.399200", "MEAN_MOTION": 14.22552125, "ECCENTRICITY": 0.0204546, "INCLINATION": 98.5785, "RA_OF_ASC_NODE": 321.4384, "ARG_OF_PERICENTER": 359.8038, "MEAN_ANOMALY": 154.3624, "EPHEMERIS_TYPE": 0, "CLASSIFICATION_TYPE": "U", "NORAD_CAT_ID": 29762, "ELEMENT_SET_NO": 999, "REV_AT_EPOCH": 97830, "BSTAR": 0.00075646, "MEAN_MOTION_DOT": 2.046e-05, "MEAN_MOTION_DDOT": 0}, "tle": {"line1": "1 29762U 99025BC  25338.43400925  .00002046  00000+0  75646-3 0  9991", "line2": "2 29762  98.5785 321.4384 0204546 359.8038 154.3624 14.22552125978303"}}, "geometry": {"type": "Point", "coordinates": [-82.3694759533453, 77.81308185909901]}}, {"type": "Feature", "properties": {"norad_id": 29763, "name": "FENGYUN 1C DEB", "group": "fengyun-1c-debris", "lat": -5.527342063489711, "lon": -40.52756028408164, "alt_km": 951.3233010697113, "timestamp": "2025-12-04T23:34:05.993684+00:00", "meta": {"OBJECT_NAME": "FENGYUN 1C DEB", "OBJECT_ID": "1999-025BD", "EPOCH": "2025-12-04T12:16:08.633856", "MEAN_MOTION": 14.0786891, "ECCENTRICITY": 0.0127015, "INCLINATION": 98.7602, "RA_OF_ASC_NODE": 318.1606, "ARG_OF_PERICENTER": 203.7753, "MEAN_ANOMALY": 285.2057, "EPHEMERIS_TYPE": 0, "CLASSIFICATION_TYPE": "U", "NORAD_CAT_ID": 29763, "ELEMENT_SET_NO": 999, "REV_AT_EPOCH": 96934, "BSTAR": 0.00020766, "MEAN_MOTION_DOT": 3.36e-06, "MEAN_MOTION_DDOT": 0}, "tle": {"line1": "1 29763U 99025BD  25338.51121104  .00000336  00000+0  20766-3 0  9993", "line2": "2 29763  98.7602 318.1606 0127015 203.7753 285.2057 14.07868910969343"}}, "geometry": {"type": "Point", "coordinates": [-40.52756028408164, -5.527342063489711]}}, {"type": "Feature", "properties": {"norad_id": 29765, "name": "FENGYUN 1C DEB", "group": "fengyun-1c-debris", "lat": 35.038067556109155, "lon": -8.847524671454488, "alt_km": 875.0578515351262, "timestamp": "2025-12-04T23:34:05.993694+00:00", "meta": {"OBJECT_NAME": "FENGYUN 1C DEB", "OBJECT_ID": "1999-025BF", "EPOCH": "2025-12-04T13:43:09.136128", "MEAN_MOTION": 14.02149351, "ECCENTRICITY": 0.0059582, "INCLINATION": 98.8309, "RA_OF_ASC_NODE": 357.013, "ARG_OF_PERICENTER": 115.2297, "MEAN_ANOMALY": 10.7015, "EPHEMERIS_TYPE": 0, "CLASSIFICATION_TYPE": "U", "NORAD_CAT_ID": 29765, "ELEMENT_SET_NO": 999, "REV_AT_EPOCH": 96636, "BSTAR": 0.00025606, "MEAN_MOTION_DOT": 3.55e-06, "MEAN_MOTION_DDOT": 0}, "tle": {"line1": "1 29765U 99025BF  25338.57163352  .00000355  00000+0  25606-3 0  9991", "line2": "2 29765  98.8309 357.0130 0059582 115.2297  10.7015 14.02149351966367"}}, "geometry": {"type": "Point", "coordinates": [-8.847524671454488, 35.038067556109155]}}, {"type": "Feature", "properties": {"norad_id": 29766, "name": "FENGYUN 1C DEB", "group": "fengyun-1c-debris", "lat": -30.324643592844016, "lon": -65.83493537142871, "alt_km": 809.1886665079, "timestamp": "2025-12-04T23:34:05.993705+00:00", "meta": {"OBJECT_NAME": "FENGYUN 1C DEB", "OBJECT_ID": "1999-025BG", "EPOCH": "2025-12-04T08:52:04.026720", "MEAN_MOTION": 13.96992458, "ECCENTRICITY": 0.0146851, "INCLINATION": 98.6838, "RA_OF_ASC_NODE": 288.4576, "ARG_OF_PERICENTER": 311.4556, "MEAN_ANOMALY": 178.5873, "EPHEMERIS_TYPE": 0, "CLASSIFICATION_TYPE": "U", "NORAD_CAT_ID": 29766, "ELEMENT_SET_NO": 999, "REV_AT_EPOCH": 95687, "BSTAR": 0.0031427, "MEAN_MOTION_DOT": 4.76e-05, "MEAN_MOTION_DDOT": 0}, "tle": {"line1": "1 29766U 99025BG  25338.36949105  .00004760  00000+0  31427-2 0  9998", "line2": "2 29766  98.6838 288.4576 0146851 311.4556 178.5873 13.96992458956874"}}, "geometry": {"type": "Point", "coordinates": [-65.83493537142871, -30.324643592844016]}}, {"type": "Feature", "properties": {"norad_id": 29767, "name": "FENGYUN 1C DEB", "group": "fengyun-1c-debris", "lat": 42.226851810106325, "lon": -59.091648002860495, "alt_km": 691.7078042801704, "timestamp": "2025-12-04T23:34:05.993715+00:00", "meta": {"OBJECT_NAME": "FENGYUN 1C DEB", "OBJECT_ID": "1999-025BH", "EPOCH": "2025-12-04T15:05:20.378112", "MEAN_MOTION": 14.03226232, "ECCENTRICITY": 0.0333089, "INCLINATION": 98.1986, "RA_OF_ASC_NODE": 308.1077, "ARG_OF_PERICENTER": 84.2856, "MEAN_ANOMALY": 337.2289, "EPHEMERIS_TYPE": 0, "CLASSIFICATION_TYPE": "U", "NORAD_CAT_ID": 29767, "ELEMENT_SET_NO": 999, "REV_AT_EPOCH": 95486, "BSTAR": 0.0039322, "MEAN_MOTION_DOT": 0.00010004, "MEAN_MOTION_DDOT": 0}, "tle": {"line1": "1 29767U 99025BH  25338.62870808  .00010004  00000+0  39322-2 0  9991", "line2": "2 29767  98.1986 308.1077 0333089  84.2856 337.2289 14.03226232954860"}}, "geometry": {"type": "Point", "coordinates": [-59.091648002860495, 42.226851810106325]}}]}